{"type": "FeatureCollection", "features": [{"type": "Feature", "properties": {"@id": "relation/18079637", "bicycle": "yes", "duration": "02:45", "fee": "yes", "foot": "yes", "from": "Biel/Bienne", "interval": "03:00", "name": "3216: Biel/Bienne-Solothurn Kurs 32,34,36", "operator": "BSG", "operator:official_name:de": "Bielersee-Schifffahrts-Gesellschaft AG", "operator:official_name:fr": "Soci\u00e9t\u00e9 de Navigation Lac de Bienne SA", "public_transport:version": "2", "ref": "3216", "reservation": "yes", "roundtrip": "yes", "route": "ferry", "to": "Solothurn", "type": "route", "vehicle": "no", "via": "B\u00fcren an der Aare", "website": "https://www.bielersee.ch/fahrplan"}, "geometry": {"type": "MultiLineString", "coordinates": [[[7.2357925, 47.1311447], [7.2304043, 47.1293325], [7.2286413, 47.1287085], [7.2273778, 47.1281899], [7.2266918, 47.1276916], [7.2260979, 47.1271171], [7.2258979, 47.12675], [7.2257987, 47.126402], [7.2258223, 47.1257525], [7.2261758, 47.1251753], [7.2267441, 47.1247995], [7.2277077, 47.1244055], [7.2287115, 47.1241419], [7.2337098, 47.1232662], [7.2383148, 47.1223876], [7.2406843, 47.1219731], [7.2433384, 47.1217045], [7.2477203, 47.1206797], [7.2525234, 47.1196282], [7.2545511, 47.1192082], [7.2565749, 47.1184943], [7.2566378, 47.1184714], [7.2573067, 47.1183218], [7.2573918, 47.1183018], [7.2583133, 47.1180847], [7.2616179, 47.1173848], [7.2633042, 47.1167634], [7.2653202, 47.1163222], [7.2671408, 47.1162285], [7.2692235, 47.1165035], [7.2709198, 47.1168631], [7.2721809, 47.1172287], [7.2743967, 47.1180356], [7.2762262, 47.1189965], [7.2780069, 47.1199664], [7.2803915, 47.1213654], [7.281535, 47.1221309], [7.281541, 47.1221371], [7.2825601, 47.1224018], [7.2851872, 47.1229476], [7.2882817, 47.1237297], [7.2909237, 47.1244056], [7.2935138, 47.1251487], [7.2955369, 47.126005], [7.2965302, 47.1264792], [7.2993907, 47.1284112], [7.301341, 47.12977], [7.3036346, 47.1313587], [7.3063026, 47.1331985], [7.3075092, 47.1340866], [7.308955, 47.1347729], [7.3109209, 47.1352859], [7.3125644, 47.1356397], [7.3143379, 47.1360254], [7.3169331, 47.1365631], [7.3188054, 47.1370726], [7.3212498, 47.1378509], [7.3243807, 47.1388061], [7.326045, 47.1393721], [7.3270175, 47.1396729], [7.3306269, 47.1408084], [7.333815, 47.1418202], [7.3358798, 47.1423084], [7.3374504, 47.1426303], [7.3400092, 47.1427788], [7.3422196, 47.1427329], [7.3472956, 47.1426727], [7.356141, 47.1424125], [7.3615889, 47.1422534], [7.3636443, 47.142026], [7.3671453, 47.1416339], [7.3689836, 47.1413611], [7.3711811, 47.140895], [7.374014, 47.1403389], [7.3755908, 47.14082], [7.377003, 47.1413408], [7.3785166, 47.1421138], [7.383037, 47.1451884], [7.3837806, 47.1458248], [7.3837953, 47.1458424], [7.3848919, 47.1471546], [7.3856189, 47.1482514], [7.3869725, 47.151462], [7.3877496, 47.1534167], [7.3886185, 47.1559963], [7.3891616, 47.1573202], [7.3902061, 47.1586838], [7.3923034, 47.1600928], [7.3992051, 47.162638], [7.4011185, 47.1629277], [7.4054384, 47.1625925], [7.4086051, 47.1621835], [7.4113291, 47.1622858], [7.4133595, 47.1632118], [7.415816, 47.1653876], [7.4162171, 47.1660238], [7.4167936, 47.169063], [7.4176877, 47.1706932], [7.4201776, 47.1719088], [7.4225718, 47.1728188], [7.4225989, 47.1728202], [7.4261144, 47.1731566], [7.427925, 47.1736184], [7.4298589, 47.1746551], [7.4313996, 47.1761193], [7.4316198, 47.1787696], [7.4311795, 47.1809069], [7.4308179, 47.1826594], [7.4316355, 47.1839631], [7.4328147, 47.1845294], [7.4343712, 47.1849889], [7.4357862, 47.1851492], [7.4377357, 47.1849782], [7.4386948, 47.1841768], [7.4391193, 47.1836425], [7.4398425, 47.1811634], [7.4400582, 47.1806412], [7.4409586, 47.1794107], [7.441947, 47.1793175], [7.4432387, 47.1793641], [7.4454896, 47.1801091], [7.4486042, 47.1819051], [7.4498994, 47.1833619], [7.4502088, 47.1844603], [7.4500369, 47.1855742], [7.4490054, 47.1871243], [7.4483177, 47.1888847], [7.4482234, 47.1892279], [7.4482925, 47.1900064], [7.4487975, 47.1900762], [7.4492026, 47.1900582], [7.4495015, 47.1899679], [7.4497627, 47.189825], [7.4501236, 47.1896309], [7.4503848, 47.1895241], [7.4506926, 47.189348], [7.4509405, 47.189157], [7.4517619, 47.1888892], [7.4529463, 47.1886183], [7.4536548, 47.1885281], [7.4544584, 47.1884559], [7.4563712, 47.1884032], [7.4578921, 47.1883972], [7.4596123, 47.1885943], [7.4609783, 47.1888215], [7.4617952, 47.1889569], [7.4629553, 47.1892848], [7.4639914, 47.1895707], [7.4647087, 47.1897798], [7.4654968, 47.190007], [7.4660879, 47.190171], [7.4670089, 47.1903094], [7.4684745, 47.1904884], [7.4691343, 47.1905591], [7.4703585, 47.1906359], [7.4710006, 47.1906569], [7.4720256, 47.1906584], [7.4736683, 47.1906569], [7.4750852, 47.1907442], [7.4757958, 47.1908194], [7.4769803, 47.1909202], [7.4776688, 47.19103], [7.4781935, 47.1911865], [7.478572, 47.191343], [7.4788643, 47.1915265], [7.4791012, 47.1917176], [7.4793071, 47.1919824], [7.4795439, 47.1923194], [7.4797321, 47.1927767], [7.4797565, 47.1930054], [7.4799602, 47.1934206], [7.4803166, 47.1940765], [7.4806907, 47.1945985], [7.4810649, 47.1950167], [7.4815054, 47.1953492], [7.481977, 47.1956561], [7.4825969, 47.1960186], [7.4831371, 47.1963902], [7.48354, 47.196694], [7.4837061, 47.196867], [7.4839142, 47.1971724], [7.4840957, 47.197544], [7.4841422, 47.1977561], [7.4841422, 47.1980975], [7.4840271, 47.1987053], [7.4838893, 47.1994137], [7.4839175, 47.2000331], [7.4839828, 47.2007841], [7.4840381, 47.201303], [7.484171, 47.2019212], [7.4843569, 47.2023514], [7.4846226, 47.2027485], [7.4849768, 47.203105], [7.4853133, 47.2034148], [7.4859864, 47.203836], [7.486469, 47.2040405], [7.486914, 47.2042616], [7.4871066, 47.2043308], [7.487308, 47.2044542], [7.4878106, 47.2046181], [7.4884393, 47.2048272], [7.4894533, 47.2050407], [7.4902592, 47.2051009], [7.4904053, 47.20514], [7.4914015, 47.2050829], [7.4924598, 47.2048693], [7.4932922, 47.2045865], [7.4944611, 47.2040721], [7.4951651, 47.2037292], [7.496002, 47.2031666], [7.4967104, 47.2026613], [7.4970115, 47.2023544], [7.4972772, 47.2021829], [7.4974189, 47.2020024], [7.4981893, 47.2013196], [7.4987251, 47.200763], [7.4992962, 47.2001523], [7.4998851, 47.1995296], [7.5003722, 47.1990678], [7.5005205, 47.1988903], [7.5012046, 47.198269], [7.5017293, 47.1978749], [7.5022407, 47.1975199], [7.5029115, 47.1971664], [7.5036487, 47.1968806], [7.5045476, 47.1966218], [7.505256, 47.1964534], [7.5058825, 47.1963526], [7.5071041, 47.1963454], [7.5077505, 47.1963541], [7.5085392, 47.1964172], [7.5093938, 47.1964684], [7.5098183, 47.1964643], [7.5113331, 47.1965165], [7.5130777, 47.196521], [7.5143462, 47.1964699], [7.5155927, 47.196339], [7.5176095, 47.196166], [7.518836, 47.1961028], [7.5198942, 47.1961329], [7.5209901, 47.1962277], [7.5217583, 47.1963586], [7.5224358, 47.1965376], [7.5234962, 47.1968159], [7.525057, 47.1972025], [7.5269698, 47.1977485], [7.527479, 47.1979396], [7.5278443, 47.1981592], [7.5284266, 47.1985593], [7.5296176, 47.1994544], [7.5303039, 47.1999492], [7.5308795, 47.200396], [7.5318714, 47.2012489], [7.5325377, 47.2019799], [7.5327547, 47.2022657], [7.5329473, 47.2024702], [7.5334167, 47.2029967], [7.5337509, 47.2034118], [7.5338318, 47.203487], [7.5339741, 47.2035486], [7.534032, 47.2035386], [7.5340351, 47.2035438], [7.5341126, 47.2035208], [7.5341094, 47.2035162], [7.5341052, 47.2035101], [7.5340277, 47.2035329], [7.534032, 47.2035386]], [[7.4481183, 47.19012], [7.4482668, 47.190016], [7.4482531, 47.1900073], [7.4482722, 47.1899935], [7.4482925, 47.1900064], [7.4483096, 47.1900173], [7.4482917, 47.1900303], [7.4482788, 47.1900222], [7.4481304, 47.1901279], [7.4481258, 47.1901307], [7.4481199, 47.1901268], [7.4481136, 47.1901226], [7.4481183, 47.19012]]]}, "id": "relation/18079637"}, {"type": "Feature", "properties": {"@id": "relation/18637779", "duration": "02:45", "from": "Solothurn", "name": "3216: Solothurn-Biel/Bienne Kurs 31,33,35", "operator": "BSG", "operator:de": "Bielersee-Schifffahrts-Gesellschaft AG", "operator:fr": "Soci\u00e9t\u00e9 de Navigation Lac de Bienne SA", "public_transport:version": "2", "ref": "3216", "route": "ferry", "to": "Biel/Bienne", "type": "route", "vehicle": "no", "via": "B\u00fcren an der Aare", "website": "https://www.bielersee.ch/fahrplan"}, "geometry": {"type": "LineString", "coordinates": [[7.2357925, 47.1311447], [7.2304043, 47.1293325], [7.2286413, 47.1287085], [7.2273778, 47.1281899], [7.2266918, 47.1276916], [7.2260979, 47.1271171], [7.2258979, 47.12675], [7.2257987, 47.126402], [7.2258223, 47.1257525], [7.2261758, 47.1251753], [7.2267441, 47.1247995], [7.2277077, 47.1244055], [7.2287115, 47.1241419], [7.2337098, 47.1232662], [7.2383148, 47.1223876], [7.2406843, 47.1219731], [7.2433384, 47.1217045], [7.2477203, 47.1206797], [7.2525234, 47.1196282], [7.2545511, 47.1192082], [7.2565749, 47.1184943], [7.2566378, 47.1184714], [7.2573067, 47.1183218], [7.2573918, 47.1183018], [7.2583133, 47.1180847], [7.2616179, 47.1173848], [7.2633042, 47.1167634], [7.2653202, 47.1163222], [7.2671408, 47.1162285], [7.2692235, 47.1165035], [7.2709198, 47.1168631], [7.2721809, 47.1172287], [7.2743967, 47.1180356], [7.2762262, 47.1189965], [7.2780069, 47.1199664], [7.2803915, 47.1213654], [7.281535, 47.1221309], [7.281541, 47.1221371], [7.2825601, 47.1224018], [7.2851872, 47.1229476], [7.2882817, 47.1237297], [7.2909237, 47.1244056], [7.2935138, 47.1251487], [7.2955369, 47.126005], [7.2965302, 47.1264792], [7.2993907, 47.1284112], [7.301341, 47.12977], [7.3036346, 47.1313587], [7.3063026, 47.1331985], [7.3075092, 47.1340866], [7.308955, 47.1347729], [7.3109209, 47.1352859], [7.3125644, 47.1356397], [7.3143379, 47.1360254], [7.3169331, 47.1365631], [7.3188054, 47.1370726], [7.3212498, 47.1378509], [7.3243807, 47.1388061], [7.326045, 47.1393721], [7.3270175, 47.1396729], [7.3306269, 47.1408084], [7.333815, 47.1418202], [7.3358798, 47.1423084], [7.3374504, 47.1426303], [7.3400092, 47.1427788], [7.3422196, 47.1427329], [7.3472956, 47.1426727], [7.356141, 47.1424125], [7.3615889, 47.1422534], [7.3636443, 47.142026], [7.3671453, 47.1416339], [7.3689836, 47.1413611], [7.3711811, 47.140895], [7.374014, 47.1403389], [7.3755908, 47.14082], [7.377003, 47.1413408], [7.3785166, 47.1421138], [7.383037, 47.1451884], [7.3837806, 47.1458248], [7.3837953, 47.1458424], [7.3848919, 47.1471546], [7.3856189, 47.1482514], [7.3869725, 47.151462], [7.3877496, 47.1534167], [7.3886185, 47.1559963], [7.3891616, 47.1573202], [7.3902061, 47.1586838], [7.3923034, 47.1600928], [7.3992051, 47.162638], [7.4011185, 47.1629277], [7.4054384, 47.1625925], [7.4086051, 47.1621835], [7.4113291, 47.1622858], [7.4133595, 47.1632118], [7.415816, 47.1653876], [7.4162171, 47.1660238], [7.4167936, 47.169063], [7.4176877, 47.1706932], [7.4201776, 47.1719088], [7.4225718, 47.1728188], [7.4225989, 47.1728202], [7.4261144, 47.1731566], [7.427925, 47.1736184], [7.4298589, 47.1746551], [7.4313996, 47.1761193], [7.4316198, 47.1787696], [7.4311795, 47.1809069], [7.4308179, 47.1826594], [7.4316355, 47.1839631], [7.4328147, 47.1845294], [7.4343712, 47.1849889], [7.4357862, 47.1851492], [7.4377357, 47.1849782], [7.4386948, 47.1841768], [7.4391193, 47.1836425], [7.4398425, 47.1811634], [7.4400582, 47.1806412], [7.4409586, 47.1794107], [7.441947, 47.1793175], [7.4432387, 47.1793641], [7.4454896, 47.1801091], [7.4486042, 47.1819051], [7.4498994, 47.1833619], [7.4502088, 47.1844603], [7.4500369, 47.1855742], [7.4490054, 47.1871243], [7.4483177, 47.1888847], [7.4482234, 47.1892279], [7.4482925, 47.1900064], [7.4487975, 47.1900762], [7.4492026, 47.1900582], [7.4495015, 47.1899679], [7.4497627, 47.189825], [7.4501236, 47.1896309], [7.4503848, 47.1895241], [7.4506926, 47.189348], [7.4509405, 47.189157], [7.4517619, 47.1888892], [7.4529463, 47.1886183], [7.4536548, 47.1885281], [7.4544584, 47.1884559], [7.4563712, 47.1884032], [7.4578921, 47.1883972], [7.4596123, 47.1885943], [7.4609783, 47.1888215], [7.4617952, 47.1889569], [7.4629553, 47.1892848], [7.4639914, 47.1895707], [7.4647087, 47.1897798], [7.4654968, 47.190007], [7.4660879, 47.190171], [7.4670089, 47.1903094], [7.4684745, 47.1904884], [7.4691343, 47.1905591], [7.4703585, 47.1906359], [7.4710006, 47.1906569], [7.4720256, 47.1906584], [7.4736683, 47.1906569], [7.4750852, 47.1907442], [7.4757958, 47.1908194], [7.4769803, 47.1909202], [7.4776688, 47.19103], [7.4781935, 47.1911865], [7.478572, 47.191343], [7.4788643, 47.1915265], [7.4791012, 47.1917176], [7.4793071, 47.1919824], [7.4795439, 47.1923194], [7.4797321, 47.1927767], [7.4797565, 47.1930054], [7.4799602, 47.1934206], [7.4803166, 47.1940765], [7.4806907, 47.1945985], [7.4810649, 47.1950167], [7.4815054, 47.1953492], [7.481977, 47.1956561], [7.4825969, 47.1960186], [7.4831371, 47.1963902], [7.48354, 47.196694], [7.4837061, 47.196867], [7.4839142, 47.1971724], [7.4840957, 47.197544], [7.4841422, 47.1977561], [7.4841422, 47.1980975], [7.4840271, 47.1987053], [7.4838893, 47.1994137], [7.4839175, 47.2000331], [7.4839828, 47.2007841], [7.4840381, 47.201303], [7.484171, 47.2019212], [7.4843569, 47.2023514], [7.4846226, 47.2027485], [7.4849768, 47.203105], [7.4853133, 47.2034148], [7.4859864, 47.203836], [7.486469, 47.2040405], [7.486914, 47.2042616], [7.4871066, 47.2043308], [7.487308, 47.2044542], [7.4878106, 47.2046181], [7.4884393, 47.2048272], [7.4894533, 47.2050407], [7.4902592, 47.2051009], [7.4904053, 47.20514], [7.4914015, 47.2050829], [7.4924598, 47.2048693], [7.4932922, 47.2045865], [7.4944611, 47.2040721], [7.4951651, 47.2037292], [7.496002, 47.2031666], [7.4967104, 47.2026613], [7.4970115, 47.2023544], [7.4972772, 47.2021829], [7.4974189, 47.2020024], [7.4981893, 47.2013196], [7.4987251, 47.200763], [7.4992962, 47.2001523], [7.4998851, 47.1995296], [7.5003722, 47.1990678], [7.5005205, 47.1988903], [7.5012046, 47.198269], [7.5017293, 47.1978749], [7.5022407, 47.1975199], [7.5029115, 47.1971664], [7.5036487, 47.1968806], [7.5045476, 47.1966218], [7.505256, 47.1964534], [7.5058825, 47.1963526], [7.5071041, 47.1963454], [7.5077505, 47.1963541], [7.5085392, 47.1964172], [7.5093938, 47.1964684], [7.5098183, 47.1964643], [7.5113331, 47.1965165], [7.5130777, 47.196521], [7.5143462, 47.1964699], [7.5155927, 47.196339], [7.5176095, 47.196166], [7.518836, 47.1961028], [7.5198942, 47.1961329], [7.5209901, 47.1962277], [7.5217583, 47.1963586], [7.5224358, 47.1965376], [7.5234962, 47.1968159], [7.525057, 47.1972025], [7.5269698, 47.1977485], [7.527479, 47.1979396], [7.5278443, 47.1981592], [7.5284266, 47.1985593], [7.5296176, 47.1994544], [7.5303039, 47.1999492], [7.5308795, 47.200396], [7.5318714, 47.2012489], [7.5325377, 47.2019799], [7.5327547, 47.2022657], [7.5329473, 47.2024702], [7.5334167, 47.2029967], [7.5337509, 47.2034118], [7.5338318, 47.203487], [7.5339741, 47.2035486], [7.534032, 47.2035386]]}, "id": "relation/18637779"}]}