{"type": "FeatureCollection", "features": [{"type": "Feature", "properties": {"@id": "relation/6188515", "bicycle": "yes", "description": "Kurs: 525,533,543,551,555", "duration": "04:45", "foot": "yes", "from": "Schaffhausen", "motor_vehicle": "no", "name": "3820: Schaffhausen->Kreuzlingen", "opening_hours": "May-Sep", "operator": "Schweizerische Schifffahrtsgesellschaft Untersee und Rhein", "public_transport:version": "2", "ref": "3820", "route": "ferry", "service": "tourism", "to": "Kreuzlingen", "type": "route", "url": "https://www.urh.ch/", "website": "https://www.oev-info.ch/sites/default/files/fap/2025/pdf/3820.pdf"}, "geometry": {"type": "MultiLineString", "coordinates": [[[8.6409642, 47.695275], [8.6410984, 47.6951134], [8.6413685, 47.6949883], [8.64263, 47.6948678], [8.6440663, 47.6946662], [8.6451888, 47.6943768], [8.6468493, 47.6938426], [8.6496989, 47.692537], [8.6515872, 47.6915837], [8.6540763, 47.6895904], [8.6568228, 47.6880304], [8.6594581, 47.6870736], [8.6621443, 47.6862104], [8.6651055, 47.6854881], [8.6689679, 47.6849392], [8.6705987, 47.6848814], [8.6723582, 47.6853437], [8.6766927, 47.6869037], [8.6801259, 47.6888393], [8.6824862, 47.6900237], [8.6857478, 47.692017], [8.6877219, 47.6944146], [8.6892668, 47.6954544], [8.6906616, 47.6956494], [8.6916661, 47.6955015], [8.6924265, 47.6953388], [8.6928838, 47.6952849], [8.6932016, 47.6953731], [8.6933076, 47.695144], [8.6936077, 47.6948954], [8.6998669, 47.6928258], [8.7024419, 47.6918148], [8.7049739, 47.6904282], [8.7087504, 47.6894171], [8.7126557, 47.6893882], [8.7159173, 47.6900526], [8.7199942, 47.6913526], [8.7227408, 47.6921036], [8.7249295, 47.6927103], [8.7336413, 47.6932013], [8.7399928, 47.691757], [8.7435548, 47.6912948], [8.7477605, 47.6908615], [8.7488847, 47.6904756], [8.7504641, 47.6907748], [8.752052, 47.6907171], [8.7547557, 47.6903126], [8.757116, 47.6897349], [8.7656991, 47.6866437], [8.7693469, 47.6848814], [8.7708489, 47.6836391], [8.7720076, 47.6821078], [8.7745826, 47.6807787], [8.7821357, 47.6780049], [8.7872426, 47.6759534], [8.7908475, 47.6749709], [8.7933795, 47.6747397], [8.7956111, 47.6750865], [8.7977139, 47.6756066], [8.8013617, 47.677716], [8.8024346, 47.6782361], [8.8039366, 47.6783517], [8.8050095, 47.6781205], [8.8069836, 47.6775426], [8.8085067, 47.6767072], [8.8102233, 47.6765193], [8.811897, 47.6765627], [8.8127819, 47.6768014], [8.8154706, 47.6780107], [8.8161993, 47.6780941], [8.8180211, 47.6778383], [8.8216817, 47.6766349], [8.8259947, 47.6749589], [8.8263702, 47.6748723], [8.8282585, 47.6747928], [8.8305871, 47.6744796], [8.8348031, 47.6723293], [8.8350069, 47.6723004], [8.8360798, 47.6724304], [8.8365304, 47.672351], [8.8380754, 47.6715635], [8.8402426, 47.6700608], [8.8405966, 47.6692588], [8.8403851, 47.6681772], [8.8401176, 47.6670773], [8.8399744, 47.6663543], [8.8401782, 47.6657763], [8.8406722, 47.6650874], [8.8416163, 47.6644515], [8.8432037, 47.6637242], [8.8452851, 47.6629728], [8.8476991, 47.6624164], [8.8519263, 47.6613108], [8.8559496, 47.6600174], [8.856671, 47.6598493], [8.8567415, 47.6596132], [8.8575003, 47.6589815], [8.8584191, 47.6584396], [8.8592331, 47.6581071], [8.8597118, 47.6579341], [8.8603985, 47.6578435], [8.8611388, 47.6578507], [8.8632088, 47.6580095], [8.8639981, 47.6579627], [8.8651268, 47.6578301], [8.8657951, 47.6577315], [8.8664764, 47.6574496], [8.8675318, 47.656651], [8.8685524, 47.6560946], [8.869581, 47.6557837], [8.8710201, 47.6555273], [8.8726012, 47.6553176], [8.876013, 47.655361], [8.8786737, 47.6552706], [8.8793081, 47.6551913], [8.880161, 47.6550395], [8.8811843, 47.6548298], [8.8825361, 47.6542552], [8.8833904, 47.6540169], [8.8839376, 47.6539952], [8.8849837, 47.6540639], [8.8853592, 47.6540277], [8.8858473, 47.6539049], [8.8866023, 47.6536554], [8.887977, 47.6528967], [8.8897298, 47.6520437], [8.8906109, 47.6517982], [8.8913981, 47.651733], [8.8934899, 47.6516544], [8.8944607, 47.6517227], [8.8948418, 47.6514475], [8.896886, 47.6510609], [8.9020143, 47.6498322], [8.9056728, 47.6493226], [8.908988, 47.6490443], [8.9116649, 47.6488889], [8.9146904, 47.6487335], [8.915935, 47.6487733], [8.9166078, 47.6487028], [8.9168122, 47.6487895], [8.9179887, 47.6491085], [8.9187366, 47.649489], [8.9194291, 47.6500055], [8.9207759, 47.6513686], [8.9237293, 47.6541777], [8.9264076, 47.6567707], [8.9271163, 47.657323], [8.9279044, 47.6577315], [8.92884, 47.6580763], [8.9291839, 47.658159], [8.929507, 47.6581804], [8.929709, 47.6582455], [8.9298516, 47.6581271], [8.9304592, 47.657921], [8.9332889, 47.6572327], [8.9358048, 47.6567377], [8.9372693, 47.6565425], [8.938267, 47.6565028], [8.9395438, 47.6565606], [8.9412872, 47.656893], [8.9425961, 47.657229], [8.9438903, 47.6578073], [8.947526, 47.6596174], [8.9511846, 47.661301], [8.9562164, 47.663906], [8.9605884, 47.6662362], [8.9652394, 47.6687217], [8.9671974, 47.6698307], [8.9680879, 47.6702497], [8.9689229, 47.6705193], [8.9695255, 47.6703509], [8.9714782, 47.6699572], [8.9749221, 47.669054], [8.9775721, 47.6683677], [8.9783768, 47.6681654], [8.9791117, 47.6681184], [8.9796696, 47.6682195], [8.9803295, 47.6684327], [8.980839, 47.6686422], [8.9812386, 47.6687023], [8.9812015, 47.6689105], [8.9812535, 47.6690469], [8.9813125, 47.6692059], [8.9816563, 47.6694957], [8.9822728, 47.6699581], [8.9823737, 47.6706664], [8.9823894, 47.6715537], [8.9818782, 47.6756367], [8.9817665, 47.6765167], [8.9818593, 47.6769005], [8.9821333, 47.6772971], [8.9826429, 47.6777667], [8.9831672, 47.6781313], [8.9832958, 47.6783134], [8.983886, 47.6784383], [8.9846296, 47.6786804], [8.9857355, 47.6788105], [8.9867796, 47.6787841], [8.9881453, 47.6785918], [8.9907847, 47.6782108], [9.0003285, 47.6770801], [9.0127909, 47.6759498], [9.0169194, 47.675718], [9.0173185, 47.6756645], [9.0177113, 47.6755224], [9.0183431, 47.6757115], [9.0189411, 47.6758461], [9.0227369, 47.676302], [9.0257218, 47.6765871], [9.0299542, 47.6770124], [9.0345127, 47.6774075], [9.0364534, 47.6775858], [9.0378144, 47.6776883], [9.0389416, 47.6775547], [9.0401924, 47.6772285], [9.0436486, 47.6756614], [9.0443551, 47.6753936], [9.0453469, 47.6752239], [9.0463873, 47.67526], [9.0472632, 47.675392], [9.0472806, 47.6753964], [9.0475157, 47.6758494], [9.0484492, 47.6774139], [9.0489628, 47.6791763], [9.0507605, 47.6864108], [9.051085, 47.687835], [9.0514027, 47.6883155], [9.0518036, 47.6885668], [9.0529569, 47.689002], [9.0535766, 47.6891879], [9.0540292, 47.6893707], [9.0541626, 47.6894407], [9.0542892, 47.6895387], [9.0550495, 47.6891335], [9.0562671, 47.6882935], [9.0572084, 47.6872369], [9.0581119, 47.6859364], [9.0593433, 47.6847335], [9.061414, 47.6833611], [9.063555, 47.6824101], [9.0808056, 47.6766882], [9.0848914, 47.6756619], [9.0855577, 47.6753965], [9.086546, 47.6755177], [9.0890139, 47.6753936], [9.089896, 47.6752334], [9.0903175, 47.6750613], [9.090835, 47.6747112], [9.0915085, 47.6740678], [9.0933913, 47.6722299], [9.0954718, 47.6701602], [9.096272, 47.6695129], [9.0972735, 47.6689364], [9.0980383, 47.668694], [9.0987021, 47.6685773], [9.0996484, 47.6685092], [9.1007084, 47.6686062], [9.1016243, 47.6687433], [9.1044784, 47.6693717], [9.1064, 47.6697297], [9.1074125, 47.6698226], [9.1083205, 47.6697802], [9.1087764, 47.6696791], [9.1094255, 47.6694045], [9.1106461, 47.6687804], [9.1122204, 47.6678114], [9.1133201, 47.6672298], [9.114393, 47.666883], [9.1157549, 47.6666326], [9.1177762, 47.6665047], [9.1193134, 47.6666389], [9.1210502, 47.6668071], [9.1234296, 47.6669795], [9.1248321, 47.6670636], [9.1269726, 47.6668938], [9.128405, 47.6666891], [9.1330432, 47.6656104], [9.1343667, 47.6651002], [9.1347, 47.6648834], [9.1349234, 47.6646376], [9.1355529, 47.6646883], [9.1362399, 47.6646784], [9.1382752, 47.6643518], [9.1393536, 47.6642132], [9.1402937, 47.6642674], [9.1413492, 47.6644914], [9.1424489, 47.6648238], [9.1448039, 47.66568], [9.147411, 47.66706], [9.1483176, 47.667284], [9.1492027, 47.6674068], [9.1504258, 47.6673526], [9.1512841, 47.6672515], [9.1521317, 47.6670203], [9.1533494, 47.6666662], [9.154036, 47.6665398], [9.1545618, 47.6665723], [9.155066, 47.666706], [9.1554737, 47.6669697], [9.1557473, 47.667284], [9.1560584, 47.6678945], [9.1562998, 47.6682558], [9.1566067, 47.6684825], [9.1578287, 47.6691661], [9.1586816, 47.669484], [9.1595721, 47.6697658], [9.161278, 47.6702137], [9.1623133, 47.6703076], [9.163354, 47.6702787], [9.1668194, 47.6701632], [9.1700166, 47.6696899], [9.1788622, 47.6662273], [9.1793615, 47.6660304], [9.1798098, 47.6657706], [9.1801152, 47.6654506], [9.1804022, 47.6649502], [9.1805276, 47.6646001], [9.1805953, 47.6642909], [9.1806112, 47.6638948], [9.180488, 47.6632739], [9.1804759, 47.6628788], [9.1805363, 47.6626145], [9.1807022, 47.6622247], [9.1813219, 47.6612038], [9.1813812, 47.6609896], [9.1813919, 47.6608089], [9.1812704, 47.6605353], [9.1811572, 47.6604015], [9.1815206, 47.6604982], [9.1817849, 47.6605632], [9.1820938, 47.6606468], [9.182387, 47.6606789], [9.1827276, 47.660668], [9.1830634, 47.660628], [9.1835177, 47.6604464], [9.1838139, 47.6601812], [9.1839577, 47.6598065], [9.1842412, 47.6568765], [9.1841851, 47.6565371], [9.1840376, 47.6562079], [9.1823176, 47.6530784], [9.18244, 47.6526493]], [[9.1811572, 47.6604015], [9.1810473, 47.6602266], [9.1800688, 47.6596837], [9.1810473, 47.6602266], [9.1811572, 47.6604015]]]}, "id": "relation/6188515"}, {"type": "Feature", "properties": {"@id": "relation/6934024", "bicycle": "yes", "description": "Kurs: 528,536,550,558,546", "duration": "03:45", "fee": "yes", "foot": "yes", "from": "Kreuzlingen", "hgv": "no", "motor_vehicle": "no", "motorcar": "no", "motorcycle": "no", "name": "3820: Kreuzlingen->Schaffhausen", "opening_hours": "May-Sep", "operator": "Schweizerische Schifffahrtsgesellschaft Untersee und Rhein", "public_transport:version": "2", "ref": "3820", "route": "ferry", "service": "tourism", "to": "Schaffhausen", "type": "route", "url": "https://www.urh.ch/", "vehicle": "no", "website": "https://www.oev-info.ch/sites/default/files/fap/2025/pdf/3820.pdf"}, "geometry": {"type": "MultiLineString", "coordinates": [[[8.6409642, 47.695275], [8.6410984, 47.6951134], [8.6413685, 47.6949883], [8.64263, 47.6948678], [8.6440663, 47.6946662], [8.6451888, 47.6943768], [8.6468493, 47.6938426], [8.6496989, 47.692537], [8.6515872, 47.6915837], [8.6540763, 47.6895904], [8.6568228, 47.6880304], [8.6594581, 47.6870736], [8.6621443, 47.6862104], [8.6651055, 47.6854881], [8.6689679, 47.6849392], [8.6705987, 47.6848814], [8.6723582, 47.6853437], [8.6766927, 47.6869037], [8.6801259, 47.6888393], [8.6824862, 47.6900237], [8.6857478, 47.692017], [8.6877219, 47.6944146], [8.6892668, 47.6954544], [8.6906616, 47.6956494], [8.6916661, 47.6955015], [8.6924265, 47.6953388], [8.6928838, 47.6952849], [8.6932016, 47.6953731], [8.6933076, 47.695144], [8.6936077, 47.6948954], [8.6998669, 47.6928258], [8.7024419, 47.6918148], [8.7049739, 47.6904282], [8.7087504, 47.6894171], [8.7126557, 47.6893882], [8.7159173, 47.6900526], [8.7199942, 47.6913526], [8.7227408, 47.6921036], [8.7249295, 47.6927103], [8.7336413, 47.6932013], [8.7399928, 47.691757], [8.7435548, 47.6912948], [8.7477605, 47.6908615], [8.7488847, 47.6904756], [8.7504641, 47.6907748], [8.752052, 47.6907171], [8.7547557, 47.6903126], [8.757116, 47.6897349], [8.7656991, 47.6866437], [8.7693469, 47.6848814], [8.7708489, 47.6836391], [8.7720076, 47.6821078], [8.7745826, 47.6807787], [8.7821357, 47.6780049], [8.7872426, 47.6759534], [8.7908475, 47.6749709], [8.7933795, 47.6747397], [8.7956111, 47.6750865], [8.7977139, 47.6756066], [8.8013617, 47.677716], [8.8024346, 47.6782361], [8.8039366, 47.6783517], [8.8050095, 47.6781205], [8.8069836, 47.6775426], [8.8085067, 47.6767072], [8.8102233, 47.6765193], [8.811897, 47.6765627], [8.8127819, 47.6768014], [8.8154706, 47.6780107], [8.8161993, 47.6780941], [8.8180211, 47.6778383], [8.8216817, 47.6766349], [8.8259947, 47.6749589], [8.8263702, 47.6748723], [8.8282585, 47.6747928], [8.8305871, 47.6744796], [8.8348031, 47.6723293], [8.8350069, 47.6723004], [8.8360798, 47.6724304], [8.8365304, 47.672351], [8.8380754, 47.6715635], [8.8402426, 47.6700608], [8.8405966, 47.6692588], [8.8403851, 47.6681772], [8.8401176, 47.6670773], [8.8399744, 47.6663543], [8.8401782, 47.6657763], [8.8406722, 47.6650874], [8.8416163, 47.6644515], [8.8432037, 47.6637242], [8.8452851, 47.6629728], [8.8476991, 47.6624164], [8.8519263, 47.6613108], [8.8559496, 47.6600174], [8.856671, 47.6598493], [8.8567415, 47.6596132], [8.8575003, 47.6589815], [8.8584191, 47.6584396], [8.8592331, 47.6581071], [8.8597118, 47.6579341], [8.8603985, 47.6578435], [8.8611388, 47.6578507], [8.8632088, 47.6580095], [8.8639981, 47.6579627], [8.8651268, 47.6578301], [8.8657951, 47.6577315], [8.8664764, 47.6574496], [8.8675318, 47.656651], [8.8685524, 47.6560946], [8.869581, 47.6557837], [8.8710201, 47.6555273], [8.8726012, 47.6553176], [8.876013, 47.655361], [8.8786737, 47.6552706], [8.8793081, 47.6551913], [8.880161, 47.6550395], [8.8811843, 47.6548298], [8.8825361, 47.6542552], [8.8833904, 47.6540169], [8.8839376, 47.6539952], [8.8849837, 47.6540639], [8.8853592, 47.6540277], [8.8858473, 47.6539049], [8.8866023, 47.6536554], [8.887977, 47.6528967], [8.8897298, 47.6520437], [8.8906109, 47.6517982], [8.8913981, 47.651733], [8.8934899, 47.6516544], [8.8944607, 47.6517227], [8.8948418, 47.6514475], [8.896886, 47.6510609], [8.9020143, 47.6498322], [8.9056728, 47.6493226], [8.908988, 47.6490443], [8.9116649, 47.6488889], [8.9146904, 47.6487335], [8.915935, 47.6487733], [8.9166078, 47.6487028], [8.9168122, 47.6487895], [8.9179887, 47.6491085], [8.9187366, 47.649489], [8.9194291, 47.6500055], [8.9207759, 47.6513686], [8.9237293, 47.6541777], [8.9264076, 47.6567707], [8.9271163, 47.657323], [8.9279044, 47.6577315], [8.92884, 47.6580763], [8.9291839, 47.658159], [8.929507, 47.6581804], [8.929709, 47.6582455], [8.9298516, 47.6581271], [8.9304592, 47.657921], [8.9332889, 47.6572327], [8.9358048, 47.6567377], [8.9372693, 47.6565425], [8.938267, 47.6565028], [8.9395438, 47.6565606], [8.9412872, 47.656893], [8.9425961, 47.657229], [8.9438903, 47.6578073], [8.947526, 47.6596174], [8.9511846, 47.661301], [8.9562164, 47.663906], [8.9605884, 47.6662362], [8.9652394, 47.6687217], [8.9671974, 47.6698307], [8.9680879, 47.6702497], [8.9689229, 47.6705193], [8.9695255, 47.6703509], [8.9714782, 47.6699572], [8.9749221, 47.669054], [8.9775721, 47.6683677], [8.9783768, 47.6681654], [8.9791117, 47.6681184], [8.9796696, 47.6682195], [8.9803295, 47.6684327], [8.980839, 47.6686422], [8.9812386, 47.6687023], [8.9812015, 47.6689105], [8.9812535, 47.6690469], [8.9813125, 47.6692059], [8.9816563, 47.6694957], [8.9822728, 47.6699581], [8.9823737, 47.6706664], [8.9823894, 47.6715537], [8.9818782, 47.6756367], [8.9817665, 47.6765167], [8.9818593, 47.6769005], [8.9821333, 47.6772971], [8.9826429, 47.6777667], [8.9831672, 47.6781313], [8.9832958, 47.6783134], [8.983886, 47.6784383], [8.9846296, 47.6786804], [8.9857355, 47.6788105], [8.9867796, 47.6787841], [8.9881453, 47.6785918], [8.9907847, 47.6782108], [9.0003285, 47.6770801], [9.0127909, 47.6759498], [9.0169194, 47.675718], [9.0173185, 47.6756645], [9.0177113, 47.6755224], [9.0183431, 47.6757115], [9.0189411, 47.6758461], [9.0227369, 47.676302], [9.0257218, 47.6765871], [9.0299542, 47.6770124], [9.0345127, 47.6774075], [9.0364534, 47.6775858], [9.0378144, 47.6776883], [9.0389416, 47.6775547], [9.0401924, 47.6772285], [9.0436486, 47.6756614], [9.0443551, 47.6753936], [9.0453469, 47.6752239], [9.0463873, 47.67526], [9.0472632, 47.675392], [9.0472806, 47.6753964], [9.0475157, 47.6758494], [9.0484492, 47.6774139], [9.0489628, 47.6791763], [9.0507605, 47.6864108], [9.051085, 47.687835], [9.0514027, 47.6883155], [9.0518036, 47.6885668], [9.0529569, 47.689002], [9.0535766, 47.6891879], [9.0540292, 47.6893707], [9.0541626, 47.6894407], [9.0542892, 47.6895387], [9.0550495, 47.6891335], [9.0562671, 47.6882935], [9.0572084, 47.6872369], [9.0581119, 47.6859364], [9.0593433, 47.6847335], [9.061414, 47.6833611], [9.063555, 47.6824101], [9.0808056, 47.6766882], [9.0848914, 47.6756619], [9.0855577, 47.6753965], [9.086546, 47.6755177], [9.0890139, 47.6753936], [9.089896, 47.6752334], [9.0903175, 47.6750613], [9.090835, 47.6747112], [9.0915085, 47.6740678], [9.0933913, 47.6722299], [9.0954718, 47.6701602], [9.096272, 47.6695129], [9.0972735, 47.6689364], [9.0980383, 47.668694], [9.0987021, 47.6685773], [9.0996484, 47.6685092], [9.1007084, 47.6686062], [9.1016243, 47.6687433], [9.1044784, 47.6693717], [9.1064, 47.6697297], [9.1074125, 47.6698226], [9.1083205, 47.6697802], [9.1087764, 47.6696791], [9.1094255, 47.6694045], [9.1106461, 47.6687804], [9.1122204, 47.6678114], [9.1133201, 47.6672298], [9.114393, 47.666883], [9.1157549, 47.6666326], [9.1177762, 47.6665047], [9.1193134, 47.6666389], [9.1210502, 47.6668071], [9.1234296, 47.6669795], [9.1248321, 47.6670636], [9.1269726, 47.6668938], [9.128405, 47.6666891], [9.1330432, 47.6656104], [9.1343667, 47.6651002], [9.1347, 47.6648834], [9.1349234, 47.6646376], [9.1355529, 47.6646883], [9.1362399, 47.6646784], [9.1382752, 47.6643518], [9.1393536, 47.6642132], [9.1402937, 47.6642674], [9.1413492, 47.6644914], [9.1424489, 47.6648238], [9.1448039, 47.66568], [9.147411, 47.66706], [9.1483176, 47.667284], [9.1492027, 47.6674068], [9.1504258, 47.6673526], [9.1512841, 47.6672515], [9.1521317, 47.6670203], [9.1533494, 47.6666662], [9.154036, 47.6665398], [9.1545618, 47.6665723], [9.155066, 47.666706], [9.1554737, 47.6669697], [9.1557473, 47.667284], [9.1560584, 47.6678945], [9.1562998, 47.6682558], [9.1566067, 47.6684825], [9.1578287, 47.6691661], [9.1586816, 47.669484], [9.1595721, 47.6697658], [9.161278, 47.6702137], [9.1623133, 47.6703076], [9.163354, 47.6702787], [9.1668194, 47.6701632], [9.1700166, 47.6696899], [9.1788622, 47.6662273], [9.1793615, 47.6660304], [9.1798098, 47.6657706], [9.1801152, 47.6654506], [9.1804022, 47.6649502], [9.1805276, 47.6646001], [9.1805953, 47.6642909], [9.1806112, 47.6638948], [9.180488, 47.6632739], [9.1804759, 47.6628788], [9.1805363, 47.6626145], [9.1807022, 47.6622247], [9.1813219, 47.6612038], [9.1813812, 47.6609896], [9.1813919, 47.6608089], [9.1812704, 47.6605353], [9.1811572, 47.6604015], [9.1815206, 47.6604982], [9.1817849, 47.6605632], [9.1820938, 47.6606468], [9.182387, 47.6606789], [9.1827276, 47.660668], [9.1830634, 47.660628], [9.1835177, 47.6604464], [9.1838139, 47.6601812], [9.1839577, 47.6598065], [9.1842412, 47.6568765], [9.1841851, 47.6565371], [9.1840376, 47.6562079], [9.1823176, 47.6530784], [9.18244, 47.6526493]], [[9.1811572, 47.6604015], [9.1810473, 47.6602266], [9.1800688, 47.6596837], [9.1810473, 47.6602266], [9.1811572, 47.6604015]]]}, "id": "relation/6934024"}]}